[Satellite]
VERSION=1.1
NAME=WASEDA-SAT3
NICKNAME=WASEDA-SAT3
TLE1=1 41933U 98067KV  18020.86560230  .00029729  00000-0  23895-3 0  9990
TLE2=2 41933  51.6364  12.5966 0004658  19.2958 340.8216 15.70693866 57628
